{"type": "FeatureCollection", "features": [ {"type": "Feature", "properties": {"norad_id": 45526, "name": "FENGYUN 1C DEB", "group": "fengyun-1c-debris", "lat": 26.94707195024889, "lon": -112.5331148041357, "alt_km": 783.3356974696844, "timestamp": "2025-12-16T19:34:24.558042+00:00", "meta": {"OBJECT_NAME": "FENGYUN 1C DEB", "OBJECT_ID": "1999-025EYR", "EPOCH": "2025-12-15T17:35:44.773440", "MEAN_MOTION": 14.25965685, "ECCENTRICITY": 0.00545238, "INCLINATION": 98.7631, "RA_OF_ASC_NODE": 61.8873, "ARG_OF_PERICENTER": 213.9541, "MEAN_ANOMALY": 145.8145, "EPHEMERIS_TYPE": 0, "CLASSIFICATION_TYPE": "U", "NORAD_CAT_ID": 45526, "ELEMENT_SET_NO": 999, "REV_AT_EPOCH": 43419, "BSTAR": 0.0012339958, "MEAN_MOTION_DOT": 2.945e-05, "MEAN_MOTION_DDOT": 0}, "tle": {"line1": "1 45526U 99025EYR 25349.73315710  .00002945  00000+0  12340-2 0  9998", "line2": "2 45526  98.7631  61.8873 0054523 213.9541 145.8145 14.25965685434195"}}, "geometry": {"type": "Point", "coordinates": [-112.5331148041357, 26.94707195024889]}}, {"type": "Feature", "properties": {"norad_id": 45527, "name": "FENGYUN 1C DEB", "group": "fengyun-1c-debris", "lat": 41.30032197279518, "lon": -114.8154081111298, "alt_km": 796.8263553226625, "timestamp": "2025-12-16T19:34:24.558052+00:00", "meta": {"OBJECT_NAME": "FENGYUN 1C DEB", "OBJECT_ID": "1999-025EYS", "EPOCH": "2025-12-14T02:51:55.958688", "MEAN_MOTION": 14.24517728, "ECCENTRICITY": 0.00553627, "INCLINATION": 98.741, "RA_OF_ASC_NODE": 54.7339, "ARG_OF_PERICENTER": 221.8013, "MEAN_ANOMALY": 137.8931, "EPHEMERIS_TYPE": 0, "CLASSIFICATION_TYPE": "U", "NORAD_CAT_ID": 45527, "ELEMENT_SET_NO": 999, "REV_AT_EPOCH": 39599, "BSTAR": 0.0019189974, "MEAN_MOTION_DOT": 4.479e-05, "MEAN_MOTION_DDOT": 0}, "tle": {"line1": "1 45527U 99025EYS 25348.11939767  .00004479  00000+0  19190-2 0  9998", "line2": "2 45527  98.7410  54.7339 0055362 221.8013 137.8931 14.24517728395991"}}, "geometry": {"type": "Point", "coordinates": [-114.8154081111298, 41.30032197279518]}}, {"type": "Feature", "properties": {"norad_id": 46440, "name": "FENGYUN 1C DEB", "group": "fengyun-1c-debris", "lat": 69.61222896125334, "lon": -6.312278200410004, "alt_km": 737.8989428008499, "timestamp": "2025-12-16T19:34:24.558062+00:00", "meta": {"OBJECT_NAME": "FENGYUN 1C DEB", "OBJECT_ID": "1999-025EYV", "EPOCH": "2025-12-13T07:01:11.080704", "MEAN_MOTION": 14.20320542, "ECCENTRICITY": 0.01762461, "INCLINATION": 98.5934, "RA_OF_ASC_NODE": 14.2712, "ARG_OF_PERICENTER": 133.6484, "MEAN_ANOMALY": 295.5393, "EPHEMERIS_TYPE": 0, "CLASSIFICATION_TYPE": "U", "NORAD_CAT_ID": 46440, "ELEMENT_SET_NO": 999, "REV_AT_EPOCH": 62377, "BSTAR": 0.00044388464, "MEAN_MOTION_DOT": 1.068e-05, "MEAN_MOTION_DDOT": 0}, "tle": {"line1": "1 46440U 99025EYV 25347.29248936  .00001068  00000+0  44388-3 0  9991", "line2": "2 46440  98.5934  14.2712 0176246 133.6484 295.5393 14.20320542623774"}}, "geometry": {"type": "Point", "coordinates": [-6.312278200410004, 69.61222896125334]}}, {"type": "Feature", "properties": {"norad_id": 46443, "name": "FENGYUN 1C DEB", "group": "fengyun-1c-debris", "lat": 47.48194031273512, "lon": -112.00132805972795, "alt_km": 910.465413036376, "timestamp": "2025-12-16T19:34:24.558073+00:00", "meta": {"OBJECT_NAME": "FENGYUN 1C DEB", "OBJECT_ID": "1999-025EYY", "EPOCH": "2025-12-13T09:33:26.080128", "MEAN_MOTION": 14.10847077, "ECCENTRICITY": 0.00965317, "INCLINATION": 99.2144, "RA_OF_ASC_NODE": 54.298, "ARG_OF_PERICENTER": 354.1442, "MEAN_ANOMALY": 69.3679, "EPHEMERIS_TYPE": 0, "CLASSIFICATION_TYPE": "U", "NORAD_CAT_ID": 46443, "ELEMENT_SET_NO": 999, "REV_AT_EPOCH": 59605, "BSTAR": 0.0025123577, "MEAN_MOTION_DOT": 4.658e-05, "MEAN_MOTION_DDOT": 0}, "tle": {"line1": "1 46443U 99025EYY 25347.39821852  .00004658  00000+0  25124-2 0  9993", "line2": "2 46443  99.2144  54.2980 0096531 354.1442  69.3679 14.10847077596051"}}, "geometry": {"type": "Point", "coordinates": [-112.00132805972795, 47.48194031273512]}}, {"type": "Feature", "properties": {"norad_id": 46444, "name": "FENGYUN 1C DEB", "group": "fengyun-1c-debris", "lat": 48.63483875137066, "lon": -17.09199269092217, "alt_km": 795.7675790519597, "timestamp": "2025-12-16T19:34:24.558083+00:00", "meta": {"OBJECT_NAME": "FENGYUN 1C DEB", "OBJECT_ID": "1999-025EYZ", "EPOCH": "2025-12-13T05:48:44.254368", "MEAN_MOTION": 14.27157872, "ECCENTRICITY": 0.00844476, "INCLINATION": 98.5132, "RA_OF_ASC_NODE": 349.2232, "ARG_OF_PERICENTER": 149.4207, "MEAN_ANOMALY": 272.1575, "EPHEMERIS_TYPE": 0, "CLASSIFICATION_TYPE": "U", "NORAD_CAT_ID": 46444, "ELEMENT_SET_NO": 999, "REV_AT_EPOCH": 62589, "BSTAR": 0.00074566944, "MEAN_MOTION_DOT": 1.848e-05, "MEAN_MOTION_DDOT": 0}, "tle": {"line1": "1 46444U 99025EYZ 25347.24217887  .00001848  00000+0  74567-3 0  9999", "line2": "2 46444  98.5132 349.2232 0084447 149.4207 272.1575 14.27157872625894"}}, "geometry": {"type": "Point", "coordinates": [-17.09199269092217, 48.63483875137066]}}, {"type": "Feature", "properties": {"norad_id": 46449, "name": "FENGYUN 1C DEB", "group": "fengyun-1c-debris", "lat": 80.4406046124403, "lon": -39.51931264239744, "alt_km": 966.2790343587776, "timestamp": "2025-12-16T19:34:24.558093+00:00", "meta": {"OBJECT_NAME": "FENGYUN 1C DEB", "OBJECT_ID": "1999-025EZE", "EPOCH": "2025-11-27T19:57:02.428704", "MEAN_MOTION": 14.19021773, "ECCENTRICITY": 0.02029501, "INCLINATION": 98.6463, "RA_OF_ASC_NODE": 6.5721, "ARG_OF_PERICENTER": 314.0231, "MEAN_ANOMALY": 44.4375, "EPHEMERIS_TYPE": 0, "CLASSIFICATION_TYPE": "U", "NORAD_CAT_ID": 46449, "ELEMENT_SET_NO": 999, "REV_AT_EPOCH": 57425, "BSTAR": 0.00050383916, "MEAN_MOTION_DOT": 1.244e-05, "MEAN_MOTION_DDOT": 0}, "tle": {"line1": "1 46449U 99025EZE 25331.83127811  .00001244  00000+0  50384-3 0  9990", "line2": "2 46449  98.6463   6.5721 0202950 314.0231  44.4375 14.19021773574253"}}, "geometry": {"type": "Point", "coordinates": [-39.51931264239744, 80.4406046124403]}}, {"type": "Feature", "properties": {"norad_id": 46450, "name": "FENGYUN 1C DEB", "group": "fengyun-1c-debris", "lat": 18.021443484485122, "lon": -155.6336243697115, "alt_km": 767.3410257055484, "timestamp": "2025-12-16T19:34:24.558103+00:00", "meta": {"OBJECT_NAME": "FENGYUN 1C DEB", "OBJECT_ID": "1999-025EZF", "EPOCH": "2025-12-13T07:39:30.370464", "MEAN_MOTION": 14.03577892, "ECCENTRICITY": 0.01825974, "INCLINATION": 98.0791, "RA_OF_ASC_NODE": 203.905, "ARG_OF_PERICENTER": 59.283, "MEAN_ANOMALY": 302.6187, "EPHEMERIS_TYPE": 0, "CLASSIFICATION_TYPE": "U", "NORAD_CAT_ID": 46450, "ELEMENT_SET_NO": 999, "REV_AT_EPOCH": 61127, "BSTAR": 0.0033356689, "MEAN_MOTION_DOT": 6.035e-05, "MEAN_MOTION_DDOT": 0}, "tle": {"line1": "1 46450U 99025EZF 25347.31910151  .00006035  00000+0  33357-2 0  9992", "line2": "2 46450  98.0791 203.9050 0182597  59.2830 302.6187 14.03577892611273"}}, "geometry": {"type": "Point", "coordinates": [-155.6336243697115, 18.021443484485122]}}, {"type": "Feature", "properties": {"norad_id": 46451, "name": "FENGYUN 1C DEB", "group": "fengyun-1c-debris", "lat": -56.593329633417525, "lon": 177.15457493249625, "alt_km": 774.0614767102115, "timestamp": "2025-12-16T19:34:24.558113+00:00", "meta": {"OBJECT_NAME": "FENGYUN 1C DEB", "OBJECT_ID": "1999-025EZG", "EPOCH": "2025-12-15T19:38:30.823584", "MEAN_MOTION": 14.20422212, "ECCENTRICITY": 0.01713025, "INCLINATION": 98.1531, "RA_OF_ASC_NODE": 8.7884, "ARG_OF_PERICENTER": 176.9233, "MEAN_ANOMALY": 2.7155, "EPHEMERIS_TYPE": 0, "CLASSIFICATION_TYPE": "U", "NORAD_CAT_ID": 46451, "ELEMENT_SET_NO": 999, "REV_AT_EPOCH": 57050, "BSTAR": 0.0017459059, "MEAN_MOTION_DOT": 4.301e-05, "MEAN_MOTION_DDOT": 0}, "tle": {"line1": "1 46451U 99025EZG 25349.81841231  .00004301  00000+0  17459-2 0  9991", "line2": "2 46451  98.1531   8.7884 0171302 176.9233   2.7155 14.20422212570506"}}, "geometry": {"type": "Point", "coordinates": [177.15457493249625, -56.593329633417525]}}, {"type": "Feature", "properties": {"norad_id": 46468, "name": "FENGYUN 1C DEB", "group": "fengyun-1c-debris", "lat": 1.5001278967635001, "lon": -101.1261018048843, "alt_km": 786.666534679267, "timestamp": "2025-12-16T19:34:24.558123+00:00", "meta": {"OBJECT_NAME": "FENGYUN 1C DEB", "OBJECT_ID": "1999-025EZK", "EPOCH": "2025-12-13T04:55:06.657888", "MEAN_MOTION": 14.24733341, "ECCENTRICITY": 0.00460719, "INCLINATION": 98.8823, "RA_OF_ASC_NODE": 74.9879, "ARG_OF_PERICENTER": 229.1827, "MEAN_ANOMALY": 160.5992, "EPHEMERIS_TYPE": 0, "CLASSIFICATION_TYPE": "U", "NORAD_CAT_ID": 46468, "ELEMENT_SET_NO": 999, "REV_AT_EPOCH": 73823, "BSTAR": 0.0028688303, "MEAN_MOTION_DOT": 6.714e-05, "MEAN_MOTION_DDOT": 0}, "tle": {"line1": "1 46468U 99025EZK 25347.20493817  .00006714  00000+0  28688-2 0  9999", "line2": "2 46468  98.8823  74.9879 0046071 229.1827 160.5992 14.24733341738238"}}, "geometry": {"type": "Point", "coordinates": [-101.1261018048843, 1.5001278967635001]}}, {"type": "Feature", "properties": {"norad_id": 46986, "name": "FENGYUN 1C DEB", "group": "fengyun-1c-debris", "lat": -33.30071164521395, "lon": 19.919519397291392, "alt_km": 785.1365484295793, "timestamp": "2025-12-16T19:34:24.558134+00:00", "meta": {"OBJECT_NAME": "FENGYUN 1C DEB", "OBJECT_ID": "1999-025EZL", "EPOCH": "2025-12-14T19:36:34.736544", "MEAN_MOTION": 14.47190739, "ECCENTRICITY": 0.01045941, "INCLINATION": 98.2378, "RA_OF_ASC_NODE": 12.5134, "ARG_OF_PERICENTER": 205.6052, "MEAN_ANOMALY": 153.9941, "EPHEMERIS_TYPE": 0, "CLASSIFICATION_TYPE": "U", "NORAD_CAT_ID": 46986, "ELEMENT_SET_NO": 999, "REV_AT_EPOCH": 63430, "BSTAR": 0.00042469278, "MEAN_MOTION_DOT": 1.613e-05, "MEAN_MOTION_DDOT": 0}, "tle": {"line1": "1 46986U 99025EZL 25348.81706871  .00001613  00000+0  42469-3 0  9996", "line2": "2 46986  98.2378  12.5134 0104594 205.6052 153.9941 14.47190739634304"}}, "geometry": {"type": "Point", "coordinates": [19.919519397291392, -33.30071164521395]}}]}